HELIOS 2A               
1 28492U 04049A   22319.48866640  .00002417  00000+0  23479-3 0  9992
2 28492  98.2511 269.7069 0013051 310.2273  49.7791 14.93592183957665
SPIRALE A               
1 33751U 09008C   22319.53727903  .00000181  00000+0  57569-3 0  9993
2 33751   2.0406 110.1270 5455469 173.0537 199.7829  4.58886852201663
SPIRALE B               
1 33752U 09008D   22319.47977380  .00001925  00000+0  84370-3 0  9990
2 33752   2.2207  35.6365 6840348 312.2901   7.2650  2.83403364129357
SAPPHIRE                
1 39088U 13009C   22319.51585028  .00000092  00000+0  47973-4 0  9996
2 39088  98.4185 151.4650 0011271 182.0888 178.0252 14.34342856508776
